[{"OBJECT_NAME":"STARLINK-5977","OBJECT_ID":"2023-078AA","EPOCH":"2026-03-09T21:30:17.415360","MEAN_MOTION":14.98338947,"ECCENTRICITY":0.00031533,"INCLINATION":70.001,"RA_OF_ASC_NODE":343.8401,"ARG_OF_PERICENTER":269.6749,"MEAN_ANOMALY":90.4049,"EPHEMERIS_TYPE":0,"CLASSIFICATION_TYPE":"U","NORAD_CAT_ID":56791,"ELEMENT_SET_NO":999,"REV_AT_EPOCH":15271,"BSTAR":-0.00019998517,"MEAN_MOTION_DOT":-2.479e-5,"MEAN_MOTION_DDOT":0},{"OBJECT_NAME":"ICEYE-X53","OBJECT_ID":"2025-135BJ","EPOCH":"2026-03-09T22:54:54.338112","MEAN_MOTION":15.00849861,"ECCENTRICITY":0.00010276,"INCLINATION":97.7425,"RA_OF_ASC_NODE":186.1287,"ARG_OF_PERICENTER":193.9381,"MEAN_ANOMALY":166.1815,"EPHEMERIS_TYPE":0,"CLASSIFICATION_TYPE":"U","NORAD_CAT_ID":64584,"ELEMENT_SET_NO":999,"REV_AT_EPOCH":3919,"BSTAR":0.00050918186,"MEAN_MOTION_DOT":6.416e-5,"MEAN_MOTION_DDOT":0}]
